[{"OBJECT_NAME":"STARLINK-32553","OBJECT_ID":"2024-217Q","EPOCH":"2026-03-09T22:00:01.999584","MEAN_MOTION":15.30196298,"ECCENTRICITY":0.00012,"INCLINATION":53.1589,"RA_OF_ASC_NODE":193.0983,"ARG_OF_PERICENTER":84.5668,"MEAN_ANOMALY":235.3429,"EPHEMERIS_TYPE":0,"CLASSIFICATION_TYPE":"U","NORAD_CAT_ID":62071,"ELEMENT_SET_NO":999,"REV_AT_EPOCH":580,"BSTAR":2.332763e-5,"MEAN_MOTION_DOT":3.32e-6,"MEAN_MOTION_DDOT":0},{"OBJECT_NAME":"HERMES-3","OBJECT_ID":"2025-052BR","EPOCH":"2026-03-09T22:30:01.073952","MEAN_MOTION":15.30039786,"ECCENTRICITY":0.00079928,"INCLINATION":97.3987,"RA_OF_ASC_NODE":324.6131,"ARG_OF_PERICENTER":112.9583,"MEAN_ANOMALY":247.2502,"EPHEMERIS_TYPE":0,"CLASSIFICATION_TYPE":"U","NORAD_CAT_ID":63835,"ELEMENT_SET_NO":999,"REV_AT_EPOCH":5486,"BSTAR":0.0006995793,"MEAN_MOTION_DOT":0.00020316,"MEAN_MOTION_DDOT":0}]
